[{"OBJECT_NAME":"STARLINK-36296","OBJECT_ID":"2026-063A","EPOCH":"2026-04-14T20:00:01.999008","MEAN_MOTION":15.77948791,"ECCENTRICITY":0.0001512,"INCLINATION":97.2837,"RA_OF_ASC_NODE":246.5582,"ARG_OF_PERICENTER":84.4129,"MEAN_ANOMALY":199.2299,"EPHEMERIS_TYPE":0,"CLASSIFICATION_TYPE":"U","NORAD_CAT_ID":68380,"ELEMENT_SET_NO":999,"REV_AT_EPOCH":147,"BSTAR":-0.012671,"MEAN_MOTION_DOT":-0.01866322,"MEAN_MOTION_DDOT":0},{"OBJECT_NAME":"STARLINK-37111","OBJECT_ID":"2026-063B","EPOCH":"2026-04-14T20:29:05.201952","MEAN_MOTION":15.80860511,"ECCENTRICITY":0.0001391,"INCLINATION":97.2824,"RA_OF_ASC_NODE":246.4062,"ARG_OF_PERICENTER":85.878,"MEAN_ANOMALY":274.2647,"EPHEMERIS_TYPE":0,"CLASSIFICATION_TYPE":"U","NORAD_CAT_ID":68381,"ELEMENT_SET_NO":999,"REV_AT_EPOCH":333,"BSTAR":0.00057278,"MEAN_MOTION_DOT":0.00111208,"MEAN_MOTION_DDOT":0},{"OBJECT_NAME":"STARLINK-36946","OBJECT_ID":"2026-063C","EPOCH":"2026-04-14T20:28:00.384672","MEAN_MOTION":15.80882673,"ECCENTRICITY":0.0001383,"INCLINATION":97.2827,"RA_OF_ASC_NODE":246.4066,"ARG_OF_PERICENTER":68.743,"MEAN_ANOMALY":291.3986,"EPHEMERIS_TYPE":0,"CLASSIFICATION_TYPE":"U","NORAD_CAT_ID":68382,"ELEMENT_SET_NO":999,"REV_AT_EPOCH":333,"BSTAR":0.00094842,"MEAN_MOTION_DOT":0.00186017,"MEAN_MOTION_DDOT":0},{"OBJECT_NAME":"STARLINK-37121","OBJECT_ID":"2026-063D","EPOCH":"2026-04-14T20:00:01.999008","MEAN_MOTION":15.75177394,"ECCENTRICITY":0.0001097,"INCLINATION":97.2843,"RA_OF_ASC_NODE":246.3832,"ARG_OF_PERICENTER":75.0393,"MEAN_ANOMALY":167.9519,"EPHEMERIS_TYPE":0,"CLASSIFICATION_TYPE":"U","NORAD_CAT_ID":68383,"ELEMENT_SET_NO":999,"REV_AT_EPOCH":427,"BSTAR":-0.00018575,"MEAN_MOTION_DOT":-0.0002773,"MEAN_MOTION_DDOT":0},{"OBJECT_NAME":"STARLINK-37137","OBJECT_ID":"2026-063E","EPOCH":"2026-04-14T19:27:17.378784","MEAN_MOTION":15.75233551,"ECCENTRICITY":0.0001323,"INCLINATION":97.2837,"RA_OF_ASC_NODE":246.3107,"ARG_OF_PERICENTER":53.6101,"MEAN_ANOMALY":306.5286,"EPHEMERIS_TYPE":0,"CLASSIFICATION_TYPE":"U","NORAD_CAT_ID":68384,"ELEMENT_SET_NO":999,"REV_AT_EPOCH":332,"BSTAR":0.00088506,"MEAN_MOTION_DOT":0.0013423,"MEAN_MOTION_DDOT":0},{"OBJECT_NAME":"STARLINK-37128","OBJECT_ID":"2026-063F","EPOCH":"2026-04-14T20:24:45.734976","MEAN_MOTION":15.80858583,"ECCENTRICITY":0.0001417,"INCLINATION":97.2825,"RA_OF_ASC_NODE":246.4107,"ARG_OF_PERICENTER":86.4619,"MEAN_ANOMALY":273.6812,"EPHEMERIS_TYPE":0,"CLASSIFICATION_TYPE":"U","NORAD_CAT_ID":68385,"ELEMENT_SET_NO":999,"REV_AT_EPOCH":333,"BSTAR":0.00081045,"MEAN_MOTION_DOT":0.00158252,"MEAN_MOTION_DDOT":0},{"OBJECT_NAME":"STARLINK-37198","OBJECT_ID":"2026-063G","EPOCH":"2026-04-14T20:00:01.999008","MEAN_MOTION":15.75187811,"ECCENTRICITY":0.0001363,"INCLINATION":97.2837,"RA_OF_ASC_NODE":246.3739,"ARG_OF_PERICENTER":99.9119,"MEAN_ANOMALY":119.0698,"EPHEMERIS_TYPE":0,"CLASSIFICATION_TYPE":"U","NORAD_CAT_ID":68386,"ELEMENT_SET_NO":999,"REV_AT_EPOCH":427,"BSTAR":6.5305e-5,"MEAN_MOTION_DOT":9.621e-5,"MEAN_MOTION_DDOT":0},{"OBJECT_NAME":"STARLINK-37223","OBJECT_ID":"2026-063H","EPOCH":"2026-04-14T20:22:35.690880","MEAN_MOTION":15.80863494,"ECCENTRICITY":0.0001525,"INCLINATION":97.2828,"RA_OF_ASC_NODE":246.412,"ARG_OF_PERICENTER":89.3998,"MEAN_ANOMALY":270.7445,"EPHEMERIS_TYPE":0,"CLASSIFICATION_TYPE":"U","NORAD_CAT_ID":68387,"ELEMENT_SET_NO":999,"REV_AT_EPOCH":333,"BSTAR":0.00063102,"MEAN_MOTION_DOT":0.00122709,"MEAN_MOTION_DDOT":0},{"OBJECT_NAME":"STARLINK-37203","OBJECT_ID":"2026-063J","EPOCH":"2026-04-14T20:21:30.890880","MEAN_MOTION":15.80866383,"ECCENTRICITY":0.0001159,"INCLINATION":97.2827,"RA_OF_ASC_NODE":246.4133,"ARG_OF_PERICENTER":91.3066,"MEAN_ANOMALY":268.8335,"EPHEMERIS_TYPE":0,"CLASSIFICATION_TYPE":"U","NORAD_CAT_ID":68388,"ELEMENT_SET_NO":999,"REV_AT_EPOCH":333,"BSTAR":0.00086356,"MEAN_MOTION_DOT":0.00168898,"MEAN_MOTION_DDOT":0},{"OBJECT_NAME":"STARLINK-37197","OBJECT_ID":"2026-063K","EPOCH":"2026-04-14T20:49:37.701408","MEAN_MOTION":15.7523696,"ECCENTRICITY":0.0001595,"INCLINATION":97.2842,"RA_OF_ASC_NODE":246.3864,"ARG_OF_PERICENTER":69.9608,"MEAN_ANOMALY":290.1829,"EPHEMERIS_TYPE":0,"CLASSIFICATION_TYPE":"U","NORAD_CAT_ID":68389,"ELEMENT_SET_NO":999,"REV_AT_EPOCH":333,"BSTAR":0.0012565,"MEAN_MOTION_DOT":0.00191948,"MEAN_MOTION_DDOT":0},{"OBJECT_NAME":"STARLINK-37193","OBJECT_ID":"2026-063L","EPOCH":"2026-04-14T20:00:01.999008","MEAN_MOTION":15.81063489,"ECCENTRICITY":0.0001815,"INCLINATION":97.2818,"RA_OF_ASC_NODE":246.6288,"ARG_OF_PERICENTER":72.7194,"MEAN_ANOMALY":31.8411,"EPHEMERIS_TYPE":0,"CLASSIFICATION_TYPE":"U","NORAD_CAT_ID":68390,"ELEMENT_SET_NO":999,"REV_AT_EPOCH":260,"BSTAR":-0.011973,"MEAN_MOTION_DOT":-0.02010597,"MEAN_MOTION_DDOT":0},{"OBJECT_NAME":"STARLINK-37216","OBJECT_ID":"2026-063M","EPOCH":"2026-04-14T20:18:15.670080","MEAN_MOTION":15.80890089,"ECCENTRICITY":0.0001104,"INCLINATION":97.2825,"RA_OF_ASC_NODE":246.4164,"ARG_OF_PERICENTER":112.6413,"MEAN_ANOMALY":247.4972,"EPHEMERIS_TYPE":0,"CLASSIFICATION_TYPE":"U","NORAD_CAT_ID":68391,"ELEMENT_SET_NO":999,"REV_AT_EPOCH":333,"BSTAR":0.00075094,"MEAN_MOTION_DOT":0.00146635,"MEAN_MOTION_DDOT":0},{"OBJECT_NAME":"STARLINK-37215","OBJECT_ID":"2026-063N","EPOCH":"2026-04-14T20:17:10.921056","MEAN_MOTION":15.80892354,"ECCENTRICITY":0.0001454,"INCLINATION":97.2827,"RA_OF_ASC_NODE":246.4172,"ARG_OF_PERICENTER":65.7969,"MEAN_ANOMALY":294.3451,"EPHEMERIS_TYPE":0,"CLASSIFICATION_TYPE":"U","NORAD_CAT_ID":68392,"ELEMENT_SET_NO":999,"REV_AT_EPOCH":333,"BSTAR":0.00095888,"MEAN_MOTION_DOT":0.00188201,"MEAN_MOTION_DDOT":0},{"OBJECT_NAME":"STARLINK-37184","OBJECT_ID":"2026-063P","EPOCH":"2026-04-14T20:16:05.885184","MEAN_MOTION":15.80862646,"ECCENTRICITY":0.0001319,"INCLINATION":97.2828,"RA_OF_ASC_NODE":246.418,"ARG_OF_PERICENTER":78.9449,"MEAN_ANOMALY":281.1967,"EPHEMERIS_TYPE":0,"CLASSIFICATION_TYPE":"U","NORAD_CAT_ID":68393,"ELEMENT_SET_NO":999,"REV_AT_EPOCH":333,"BSTAR":0.0005163,"MEAN_MOTION_DOT":0.00100108,"MEAN_MOTION_DDOT":0},{"OBJECT_NAME":"STARLINK-37157","OBJECT_ID":"2026-063Q","EPOCH":"2026-04-14T20:38:26.611008","MEAN_MOTION":15.75250481,"ECCENTRICITY":0.0001296,"INCLINATION":97.2843,"RA_OF_ASC_NODE":246.3967,"ARG_OF_PERICENTER":93.8541,"MEAN_ANOMALY":266.2873,"EPHEMERIS_TYPE":0,"CLASSIFICATION_TYPE":"U","NORAD_CAT_ID":68394,"ELEMENT_SET_NO":999,"REV_AT_EPOCH":333,"BSTAR":0.0013195,"MEAN_MOTION_DOT":0.0020193,"MEAN_MOTION_DDOT":0},{"OBJECT_NAME":"STARLINK-37172","OBJECT_ID":"2026-063R","EPOCH":"2026-04-14T20:00:01.999008","MEAN_MOTION":15.75209509,"ECCENTRICITY":0.0001271,"INCLINATION":97.2841,"RA_OF_ASC_NODE":246.3867,"ARG_OF_PERICENTER":82.9502,"MEAN_ANOMALY":172.0269,"EPHEMERIS_TYPE":0,"CLASSIFICATION_TYPE":"U","NORAD_CAT_ID":68395,"ELEMENT_SET_NO":999,"REV_AT_EPOCH":427,"BSTAR":-0.00062962,"MEAN_MOTION_DOT":-0.00093104,"MEAN_MOTION_DDOT":0}]
