STARLINK-36296
1 68380U 26063A   26104.83335647 -.01866322  00000+0 -12671-1 0  9991
2 68380  97.2837 246.5582 0001512  84.4129 199.2299 15.77948791  1473
STARLINK-37111
1 68381U 26063B   26104.85353243  .00111208  00000+0  57278-3 0  9993
2 68381  97.2824 246.4062 0001391  85.8780 274.2647 15.80860511  3330
STARLINK-36946
1 68382U 26063C   26104.85278223  .00186017  00000+0  94842-3 0  9996
2 68382  97.2827 246.4066 0001383  68.7430 291.3986 15.80882673  3330
STARLINK-37121
1 68383U 26063D   26104.83335647 -.00027730  00000+0 -18575-3 0  9996
2 68383  97.2843 246.3832 0001097  75.0393 167.9519 15.75177394  4275
STARLINK-37137
1 68384U 26063E   26104.81061781  .00134230  00000+0  88506-3 0  9993
2 68384  97.2837 246.3107 0001323  53.6101 306.5286 15.75233551  3320
STARLINK-37128
1 68385U 26063F   26104.85052934  .00158252  00000+0  81045-3 0  9999
2 68385  97.2825 246.4107 0001417  86.4619 273.6812 15.80858583  3335
STARLINK-37198
1 68386U 26063G   26104.83335647  .00009621  00000+0  65305-4 0  9990
2 68386  97.2837 246.3739 0001363  99.9119 119.0698 15.75187811  4275
STARLINK-37223
1 68387U 26063H   26104.84902420  .00122709  00000+0  63102-3 0  9996
2 68387  97.2828 246.4120 0001525  89.3998 270.7445 15.80863494  3334
STARLINK-37203
1 68388U 26063J   26104.84827420  .00168898  00000+0  86356-3 0  9998
2 68388  97.2827 246.4133 0001159  91.3066 268.8335 15.80866383  3336
STARLINK-37197
1 68389U 26063K   26104.86779747  .00191948  00000+0  12565-2 0  9991
2 68389  97.2842 246.3864 0001595  69.9608 290.1829 15.75236960  3333
STARLINK-37193
1 68390U 26063L   26104.83335647 -.02010597  00000+0 -11973-1 0  9992
2 68390  97.2818 246.6288 0001815  72.7194  31.8411 15.81063489  2605
STARLINK-37216
1 68391U 26063M   26104.84601470  .00146635  00000+0  75094-3 0  9999
2 68391  97.2825 246.4164 0001104 112.6413 247.4972 15.80890089  3335
STARLINK-37215
1 68392U 26063N   26104.84526529  .00188201  00000+0  95888-3 0  9999
2 68392  97.2827 246.4172 0001454  65.7969 294.3451 15.80892354  3339
STARLINK-37184
1 68393U 26063P   26104.84451256  .00100108  00000+0  51630-3 0  9991
2 68393  97.2828 246.4180 0001319  78.9449 281.1967 15.80862646  3336
STARLINK-37157
1 68394U 26063Q   26104.86003022  .00201930  00000+0  13195-2 0  9996
2 68394  97.2843 246.3967 0001296  93.8541 266.2873 15.75250481  3331
STARLINK-37172
1 68395U 26063R   26104.83335647 -.00093104  00000+0 -62962-3 0  9996
2 68395  97.2841 246.3867 0001271  82.9502 172.0269 15.75209509  4270
